STARLINK-1168           
1 45072U 20006AE  26068.89922438 -.00001118  00000+0 -26424-4 0  9997
2 45072  53.1613 256.9413 0001220  95.4822 264.6317 15.29348278336903
XCUBE-1                 
1 62400U 24247Z   26068.48297321  .00009773  00000+0  36224-3 0  9994
2 62400  44.9938 117.7807 0005235 331.1499  28.9094 15.27910558 67702
